[{"OBJECT_NAME":"STARLINK-2571","OBJECT_ID":"2021-038BA","EPOCH":"2025-12-23T05:11:58.352640","MEAN_MOTION":15.06387436,"ECCENTRICITY":0.00014151,"INCLINATION":53.0571,"RA_OF_ASC_NODE":324.9298,"ARG_OF_PERICENTER":91.4805,"MEAN_ANOMALY":268.6346,"EPHEMERIS_TYPE":0,"CLASSIFICATION_TYPE":"U","NORAD_CAT_ID":48401,"ELEMENT_SET_NO":999,"REV_AT_EPOCH":25577,"BSTAR":-9.891308e-6,"MEAN_MOTION_DOT":-4.29e-6,"MEAN_MOTION_DDOT":0},{"OBJECT_NAME":"STARLINK-2593","OBJECT_ID":"2021-038BD","EPOCH":"2025-12-23T04:02:58.176096","MEAN_MOTION":15.06390329,"ECCENTRICITY":0.00012689,"INCLINATION":53.057,"RA_OF_ASC_NODE":325.1322,"ARG_OF_PERICENTER":99.8341,"MEAN_ANOMALY":260.2791,"EPHEMERIS_TYPE":0,"CLASSIFICATION_TYPE":"U","NORAD_CAT_ID":48404,"ELEMENT_SET_NO":999,"REV_AT_EPOCH":25577,"BSTAR":8.5383591e-5,"MEAN_MOTION_DOT":9.9e-6,"MEAN_MOTION_DDOT":0},{"OBJECT_NAME":"STARLINK-2570","OBJECT_ID":"2021-038BE","EPOCH":"2025-12-23T03:57:39.960576","MEAN_MOTION":15.0639393,"ECCENTRICITY":0.00015463,"INCLINATION":53.0585,"RA_OF_ASC_NODE":325.1504,"ARG_OF_PERICENTER":82.0806,"MEAN_ANOMALY":278.0359,"EPHEMERIS_TYPE":0,"CLASSIFICATION_TYPE":"U","NORAD_CAT_ID":48405,"ELEMENT_SET_NO":999,"REV_AT_EPOCH":25577,"BSTAR":-2.8784695e-5,"MEAN_MOTION_DOT":-7.1e-6,"MEAN_MOTION_DDOT":0},{"OBJECT_NAME":"STARLINK-2568","OBJECT_ID":"2021-038BF","EPOCH":"2025-12-23T03:52:21.484128","MEAN_MOTION":15.06385776,"ECCENTRICITY":0.00011885,"INCLINATION":53.0558,"RA_OF_ASC_NODE":325.1667,"ARG_OF_PERICENTER":87.2609,"MEAN_ANOMALY":272.8516,"EPHEMERIS_TYPE":0,"CLASSIFICATION_TYPE":"U","NORAD_CAT_ID":48406,"ELEMENT_SET_NO":999,"REV_AT_EPOCH":25577,"BSTAR":5.5757863e-5,"MEAN_MOTION_DOT":5.49e-6,"MEAN_MOTION_DDOT":0},{"OBJECT_NAME":"STARLINK-2595","OBJECT_ID":"2021-038BG","EPOCH":"2025-12-23T08:00:03.000384","MEAN_MOTION":15.97950103,"ECCENTRICITY":0.00090594,"INCLINATION":53.0216,"RA_OF_ASC_NODE":227.5513,"ARG_OF_PERICENTER":188.8351,"MEAN_ANOMALY":212.1372,"EPHEMERIS_TYPE":0,"CLASSIFICATION_TYPE":"U","NORAD_CAT_ID":48407,"ELEMENT_SET_NO":999,"REV_AT_EPOCH":604,"BSTAR":0.0017230315,"MEAN_MOTION_DOT":0.00804266,"MEAN_MOTION_DDOT":0.00030247324},{"OBJECT_NAME":"STARLINK-2592","OBJECT_ID":"2021-038BH","EPOCH":"2025-12-23T05:17:14.895456","MEAN_MOTION":15.06425716,"ECCENTRICITY":0.00014228,"INCLINATION":53.0572,"RA_OF_ASC_NODE":324.903,"ARG_OF_PERICENTER":97.2117,"MEAN_ANOMALY":262.9034,"EPHEMERIS_TYPE":0,"CLASSIFICATION_TYPE":"U","NORAD_CAT_ID":48408,"ELEMENT_SET_NO":999,"REV_AT_EPOCH":25577,"BSTAR":0.00063184069,"MEAN_MOTION_DOT":9.149e-5,"MEAN_MOTION_DDOT":0},{"OBJECT_NAME":"STARLINK-2563","OBJECT_ID":"2021-038BK","EPOCH":"2025-12-23T01:11:08.019168","MEAN_MOTION":15.06386931,"ECCENTRICITY":0.00018785,"INCLINATION":53.0579,"RA_OF_ASC_NODE":280.6696,"ARG_OF_PERICENTER":78.8925,"MEAN_ANOMALY":281.2275,"EPHEMERIS_TYPE":0,"CLASSIFICATION_TYPE":"U","NORAD_CAT_ID":48410,"ELEMENT_SET_NO":999,"REV_AT_EPOCH":25639,"BSTAR":0.00017767592,"MEAN_MOTION_DOT":2.365e-5,"MEAN_MOTION_DDOT":0},{"OBJECT_NAME":"STARLINK-2505","OBJECT_ID":"2021-038BL","EPOCH":"2025-12-23T03:11:12.472800","MEAN_MOTION":15.06396899,"ECCENTRICITY":0.00012513,"INCLINATION":53.0568,"RA_OF_ASC_NODE":275.2972,"ARG_OF_PERICENTER":84.0711,"MEAN_ANOMALY":276.042,"EPHEMERIS_TYPE":0,"CLASSIFICATION_TYPE":"U","NORAD_CAT_ID":48411,"ELEMENT_SET_NO":999,"REV_AT_EPOCH":25647,"BSTAR":0.00012640712,"MEAN_MOTION_DOT":1.602e-5,"MEAN_MOTION_DDOT":0},{"OBJECT_NAME":"STARLINK-2581","OBJECT_ID":"2021-038BM","EPOCH":"2025-12-23T02:02:17.238336","MEAN_MOTION":15.06391032,"ECCENTRICITY":0.000144,"INCLINATION":53.0544,"RA_OF_ASC_NODE":275.9462,"ARG_OF_PERICENTER":87.0853,"MEAN_ANOMALY":273.0301,"EPHEMERIS_TYPE":0,"CLASSIFICATION_TYPE":"U","NORAD_CAT_ID":48412,"ELEMENT_SET_NO":999,"REV_AT_EPOCH":25646,"BSTAR":-1.9179854e-5,"MEAN_MOTION_DOT":-5.67e-6,"MEAN_MOTION_DDOT":0},{"OBJECT_NAME":"STARLINK-2461","OBJECT_ID":"2021-040A","EPOCH":"2025-12-22T05:31:28.745184","MEAN_MOTION":15.06397685,"ECCENTRICITY":0.00014469,"INCLINATION":53.0538,"RA_OF_ASC_NODE":174.3452,"ARG_OF_PERICENTER":93.1897,"MEAN_ANOMALY":266.9258,"EPHEMERIS_TYPE":0,"CLASSIFICATION_TYPE":"U","NORAD_CAT_ID":48428,"ELEMENT_SET_NO":999,"REV_AT_EPOCH":25488,"BSTAR":0.00010688617,"MEAN_MOTION_DOT":1.311e-5,"MEAN_MOTION_DDOT":0},{"OBJECT_NAME":"STARLINK-2700","OBJECT_ID":"2021-040D","EPOCH":"2025-12-23T02:35:20.332608","MEAN_MOTION":15.06402415,"ECCENTRICITY":0.00013601,"INCLINATION":53.0559,"RA_OF_ASC_NODE":135.4088,"ARG_OF_PERICENTER":88.2176,"MEAN_ANOMALY":271.8969,"EPHEMERIS_TYPE":0,"CLASSIFICATION_TYPE":"U","NORAD_CAT_ID":48431,"ELEMENT_SET_NO":999,"REV_AT_EPOCH":25550,"BSTAR":0.00011624878,"MEAN_MOTION_DOT":1.451e-5,"MEAN_MOTION_DDOT":0},{"OBJECT_NAME":"STARLINK-2680","OBJECT_ID":"2021-040E","EPOCH":"2025-12-22T18:10:32.862720","MEAN_MOTION":15.06401859,"ECCENTRICITY":0.00011336,"INCLINATION":53.055,"RA_OF_ASC_NODE":132.3746,"ARG_OF_PERICENTER":85.0829,"MEAN_ANOMALY":275.029,"EPHEMERIS_TYPE":0,"CLASSIFICATION_TYPE":"U","NORAD_CAT_ID":48432,"ELEMENT_SET_NO":999,"REV_AT_EPOCH":25551,"BSTAR":0.00013260417,"MEAN_MOTION_DOT":1.694e-5,"MEAN_MOTION_DDOT":0},{"OBJECT_NAME":"STARLINK-2699","OBJECT_ID":"2021-040F","EPOCH":"2025-12-22T16:52:54.473664","MEAN_MOTION":15.06399028,"ECCENTRICITY":0.00012622,"INCLINATION":53.0553,"RA_OF_ASC_NODE":137.5013,"ARG_OF_PERICENTER":90.641,"MEAN_ANOMALY":269.4724,"EPHEMERIS_TYPE":0,"CLASSIFICATION_TYPE":"U","NORAD_CAT_ID":48433,"ELEMENT_SET_NO":999,"REV_AT_EPOCH":25543,"BSTAR":8.5638805e-5,"MEAN_MOTION_DOT":9.94e-6,"MEAN_MOTION_DDOT":0},{"OBJECT_NAME":"STARLINK-2692","OBJECT_ID":"2021-040G","EPOCH":"2025-12-23T03:10:37.598304","MEAN_MOTION":15.06396633,"ECCENTRICITY":0.00011237,"INCLINATION":53.0546,"RA_OF_ASC_NODE":140.8056,"ARG_OF_PERICENTER":86.7369,"MEAN_ANOMALY":273.3749,"EPHEMERIS_TYPE":0,"CLASSIFICATION_TYPE":"U","NORAD_CAT_ID":48434,"ELEMENT_SET_NO":999,"REV_AT_EPOCH":25543,"BSTAR":2.0214602e-5,"MEAN_MOTION_DOT":2.0e-7,"MEAN_MOTION_DDOT":0},{"OBJECT_NAME":"STARLINK-2633","OBJECT_ID":"2021-040H","EPOCH":"2025-12-23T03:19:51.455136","MEAN_MOTION":15.06393026,"ECCENTRICITY":0.00013399,"INCLINATION":53.0533,"RA_OF_ASC_NODE":150.2793,"ARG_OF_PERICENTER":93.5339,"MEAN_ANOMALY":266.5804,"EPHEMERIS_TYPE":0,"CLASSIFICATION_TYPE":"U","NORAD_CAT_ID":48435,"ELEMENT_SET_NO":999,"REV_AT_EPOCH":25529,"BSTAR":0.00011125298,"MEAN_MOTION_DOT":1.376e-5,"MEAN_MOTION_DDOT":0},{"OBJECT_NAME":"STARLINK-2639","OBJECT_ID":"2021-040J","EPOCH":"2025-12-23T04:40:07.438656","MEAN_MOTION":15.06393886,"ECCENTRICITY":0.00012788,"INCLINATION":53.0527,"RA_OF_ASC_NODE":165.0177,"ARG_OF_PERICENTER":91.0133,"MEAN_ANOMALY":269.1002,"EPHEMERIS_TYPE":0,"CLASSIFICATION_TYPE":"U","NORAD_CAT_ID":48436,"ELEMENT_SET_NO":999,"REV_AT_EPOCH":25509,"BSTAR":0.0002111356,"MEAN_MOTION_DOT":2.864e-5,"MEAN_MOTION_DDOT":0}]
