STARLINK-2571           
1 48401U 21038BA  25357.21664760 -.00000429  00000+0 -98913-5 0  9996
2 48401  53.0571 324.9298 0001415  91.4805 268.6346 15.06387436255779
STARLINK-2593           
1 48404U 21038BD  25357.16872889  .00000990  00000+0  85384-4 0  9994
2 48404  53.0570 325.1322 0001268  99.8341 260.2791 15.06390329255772
STARLINK-2570           
1 48405U 21038BE  25357.16504584 -.00000710  00000+0 -28785-4 0  9993
2 48405  53.0585 325.1504 0001546  82.0806 278.0359 15.06393930255778
STARLINK-2568           
1 48406U 21038BF  25357.16135977  .00000549  00000+0  55758-4 0  9998
2 48406  53.0558 325.1667 0001188  87.2609 272.8516 15.06385776255775
STARLINK-2595           
1 48407U 21038BG  25357.33336806  .00804266  30247-3  17230-2 0  9991
2 48407  53.0216 227.5513 0009059 188.8351 212.1372 15.97950103  6042
STARLINK-2592           
1 48408U 21038BH  25357.22031129  .00009149  00000+0  63184-3 0  9997
2 48408  53.0572 324.9030 0001422  97.2117 262.9034 15.06425716255774
STARLINK-2563           
1 48410U 21038BK  25357.04939837  .00002365  00000+0  17768-3 0  9993
2 48410  53.0579 280.6696 0001878  78.8925 281.2275 15.06386931256392
STARLINK-2505           
1 48411U 21038BL  25357.13278325  .00001602  00000+0  12641-3 0  9990
2 48411  53.0568 275.2972 0001251  84.0711 276.0420 15.06396899256472
STARLINK-2581           
1 48412U 21038BM  25357.08492174 -.00000567  00000+0 -19180-4 0  9992
2 48412  53.0544 275.9462 0001440  87.0853 273.0301 15.06391032256466
STARLINK-2461           
1 48428U 21040A   25356.23019381  .00001311  00000+0  10689-3 0  9993
2 48428  53.0538 174.3452 0001446  93.1897 266.9258 15.06397685254885
STARLINK-2700           
1 48431U 21040D   25357.10787422  .00001451  00000+0  11625-3 0  9998
2 48431  53.0559 135.4088 0001360  88.2176 271.8969 15.06402415255507
STARLINK-2680           
1 48432U 21040E   25356.75732480  .00001694  00000+0  13260-3 0  9999
2 48432  53.0550 132.3746 0001133  85.0829 275.0290 15.06401859255519
STARLINK-2699           
1 48433U 21040F   25356.70340826  .00000994  00000+0  85639-4 0  9996
2 48433  53.0553 137.5013 0001262  90.6410 269.4724 15.06399028255432
STARLINK-2692           
1 48434U 21040G   25357.13237961  .00000020  00000+0  20215-4 0  9999
2 48434  53.0546 140.8056 0001123  86.7369 273.3749 15.06396633255434
STARLINK-2633           
1 48435U 21040H   25357.13878999  .00001376  00000+0  11125-3 0  9996
2 48435  53.0533 150.2793 0001339  93.5339 266.5804 15.06393026255299
STARLINK-2639           
1 48436U 21040J   25357.19453054  .00002864  00000+0  21114-3 0  9996
2 48436  53.0527 165.0177 0001278  91.0133 269.1002 15.06393886255091
